{
  "norad_id": 58080,
  "name": "STARLINK-30603",
  "history": [
    {
      "epoch": "2026-03-28T16:54:05.737248Z",
      "apogee_km": 483.8830907269394,
      "perigee_km": 482.1856369315283,
      "latitude_deg": -3.138201758666414e-05,
      "longitude_deg": -109.1277983052228,
      "height_km": 482.8888584659477,
      "semi_major_axis_km": 6861.171363829233,
      "eccentricity": 0.0001237,
      "inclination_deg": 42.9997,
      "raan_deg": 330.517,
      "arg_perigee_deg": 264.7286,
      "mean_anomaly_deg": 95.3424,
      "mean_motion_rev_day": 15.2758492
    },
    {
      "epoch": "2026-03-29T00:44:52.363968Z",
      "apogee_km": 483.84000542246395,
      "perigee_km": 482.19470060861113,
      "latitude_deg": -2.316356261240347e-06,
      "longitude_deg": 131.01001910939556,
      "height_km": 482.92745510755964,
      "semi_major_axis_km": 6861.154353015537,
      "eccentricity": 0.0001199,
      "inclination_deg": 42.9984,
      "raan_deg": 328.6713,
      "arg_perigee_deg": 260.6409,
      "mean_anomaly_deg": 99.4307,
      "mean_motion_rev_day": 15.27590601
    },
    {
      "epoch": "2026-03-30T00:17:13.498656Z",
      "apogee_km": 483.849247459063,
      "perigee_km": 482.2643116959807,
      "latitude_deg": 4.9850014909274255e-06,
      "longitude_deg": 131.4122454410546,
      "height_km": 482.67483529101014,
      "semi_major_axis_km": 6861.193779577522,
      "eccentricity": 0.0001155,
      "inclination_deg": 43.0023,
      "raan_deg": 323.1283,
      "arg_perigee_deg": 281.552,
      "mean_anomaly_deg": 78.5202,
      "mean_motion_rev_day": 15.27577434
    }
  ]
}